H-2A R/B                
1 28932U 06002B   26194.48328120  .00004546  00000+0  21757-3 0  9995
2 28932  98.2585 352.7015 0050700 171.8030 188.4042 15.18428233113513
RESURS-DK 1             
1 29228U 06021A   26194.60795401  .00000955  00000+0  59601-4 0  9999
2 29228  69.9309 271.1556 0007013 272.7171  87.3192 15.13315847106573
CZ-4B R/B               
1 29507U 06046C   26194.62221184  .00002377  00000+0  11894-3 0  9991
2 29507  97.5441 239.1481 0032425 187.5675 172.5074 15.17973709 79144
CZ-2C R/B               
1 31114U 07010B   26194.26672714  .00000026  00000+0  31042-4 0  9996
2 31114  98.4117 301.3447 0057804 289.4901  70.0038 14.20281507997543
COSMO-SKYMED 1          
1 31598U 07023A   26194.60140953  .00001329  00000+0  12011-3 0  9990
2 31598  97.8844  26.6807 0001289 103.7292 256.4073 14.97214615 33745
COSMOS 2428             
1 31792U 07029A   26194.62135430  .00000206  00000+0  13628-3 0  9996
2 31792  70.9381 298.9757 0007200  84.3076 275.8866 14.12933472981888
SL-16 R/B               
1 31793U 07029B   26194.63082786  .00000107  00000+0  80401-4 0  9997
2 31793  70.9746 267.6415 0002010 256.2334 210.5648 14.14851164983187
KORONAS-FOTON           
1 33504U 09003A   26194.35701677  .00008194  00000+0  16523-3 0  9996
2 33504  82.4302 144.9497 0012319  67.7642 292.4913 15.46270004965146
CZ-2C R/B               
1 37731U 11030B   26194.45861722  .00000538  00000+0  74063-4 0  9992
2 37731  97.8669 149.3738 0050889 301.9687 169.3473 14.81530536808710
H-2A R/B                
1 38341U 12025E   26194.51363650  .00000563  00000+0  55848-4 0  9997
2 38341  98.4848 171.8343 0042399 260.8046  98.8375 14.95835223767026
SHIJIAN-16 (SJ-16)      
1 39358U 13057A   26194.64765936  .00000186  00000+0  20894-4 0  9993
2 39358  74.9738 306.5650 0015841 168.5188 191.6365 14.92666075690292
SL-4 R/B                
1 39679U 14021B   26193.91861972  .00007119  00000+0  14899-3 0  9997
2 39679  51.6063  84.6655 0089796 200.0922 159.6520 15.42452959675580
ALOS-2                  
1 39766U 14029A   26194.58361574  .00001129  00000+0  15801-3 0  9998
2 39766  97.9230 291.3702 0001621  93.0159 267.1238 14.79473156655488
YAOGAN-29               
1 41038U 15069A   26194.62511061  .00000119  00000+0  21256-4 0  9991
2 41038  98.0023 223.2981 0000881  12.4859 347.6376 14.83104773574542
ASTRO-H (HITOMI)        
1 41337U 16012A   26194.46539588  .00001442  00000+0  79368-4 0  9995
2 41337  30.9985 264.4618 0009607 157.9025 202.2028 15.10628471571268
HXMT (HUIYAN)           
1 42758U 17034A   26194.64144536  .00002393  00000+0  12342-3 0  9997
2 42758  43.0153  35.7141 0032459 311.2272  48.5781 15.18680409501681
SAOCOM 1A               
1 43641U 18076A   26194.60017344 -.00000068  00000+0 -20036-5 0  9998
2 43641  97.8884  20.9651 0001417  85.9438 274.1937 14.82145253420012
H-2A R/B                
1 43682U 18084L   26194.60587521  .00012611  00000+0  25742-3 0  9993
2 43682  98.8538  79.2864 0020670 306.4395  53.4944 15.46160934425208
SAOCOM 1B               
1 46265U 20059A   26194.63138611  .00000331  00000+0  48085-4 0  9995
2 46265  97.8888  20.0922 0001578  81.5328 278.6064 14.82158907317409
CSS (TIANHE)            
1 48274U 21035A   26194.54839549  .00000774  00000+0  14285-4 0  9996
2 48274  41.4687 161.8154 0002308 295.5855  64.4744 15.58055023297286
COSMOS 2550             
1 48865U 21056A   26194.69426183  .00000545  00000+0  22411-4 0  9993
2 48865  67.1415  19.7235 0008386 269.4990  90.5204 15.33820895282789
CZ-2C R/B               
1 52794U 22058K   26193.94606983  .00034864  00000+0  36103-3 0  9990
2 52794  50.1858  29.2996 0030465  13.2357 346.9410 15.63734509229678
CZ-2C R/B               
1 54039U 22132E   26194.48655309  .00047023  00000+0  31861-3 0  9990
2 54039  97.2888 202.7479 0009734 350.2513   9.8561 15.74817111210084
GSLV R/B                
1 54149U 22138AN  26194.31562600  .00001308  00000+0  10948-3 0  9990
2 54149  87.3818 124.2105 0023718  58.3676 301.9865 14.97377522202723
XRISM                   
1 57800U 23137A   26194.32274361  .00002060  00000+0  10940-3 0  9990
2 57800  31.0007 190.2776 0007858 227.7814 132.2158 15.12661465156825
ACS3                    
1 59588U 24077B   26192.74048558  .00010248  00000+0  71307-2 0  9990
2 59588  97.1723 106.0854 0121011  40.7850 320.2298 13.95349463111466
SPACEMOBILE-003         
1 61045U 24163A   26193.12443383  .00000008  00000+0  15017-4 0  9996
2 61045  52.9645 194.7701 0003953 176.8899 183.2120 15.20757146101564
SPACEMOBILE-005         
1 61046U 24163B   26194.09371225  .00000320  00000+0  29081-4 0  9992
2 61046  52.9757 190.2542 0008516 188.4778 171.6074 15.20746160101707
SPACEMOBILE-001         
1 61047U 24163C   26192.44911905  .00000309  00000+0  28551-4 0  9993
2 61047  52.9736 197.5273 0007475 183.3179 176.7767 15.20792937101458
SPACEMOBILE-002         
1 61048U 24163D   26194.07601240  .00013464  00000+0  61597-3 0  9995
2 61048  52.9787 190.0866 0006379 191.8159 168.2686 15.20818302101704
